{
  "type": "FeatureCollection",
  "features": [
    {
      "type": "Feature",
      "properties": {
        "norad_id": 33412,
        "name": "COSMO-SKYMED 3",
        "group": "resource",
        "lat": -47.352602605949514,
        "lon": -160.62618132310152,
        "alt_km": 562.4639689608985,
        "timestamp": "2025-12-06T11:28:10.685881+00:00",
        "meta_object_name": "COSMO-SKYMED 3",
        "meta_object_id": "2008-054A",
        "meta_epoch": "2025-12-05T21:19:26.685984",
        "meta_mean_motion": 15.05253107,
        "meta_eccentricity": 0.00156412,
        "meta_inclination": 97.8456,
        "meta_ra_of_asc_node": 190.1651,
        "meta_arg_of_pericenter": 197.0636,
        "meta_mean_anomaly": 163.0066,
        "meta_ephemeris_type": 0,
        "meta_classification_type": "U",
        "meta_norad_cat_id": 33412,
        "meta_element_set_no": 999,
        "meta_rev_at_epoch": 92784,
        "meta_bstar": 0.00056467285,
        "meta_mean_motion_dot": 8.028e-05,
        "meta_mean_motion_ddot": 0,
        "tle_line1": "1 33412U 08054A   25339.88850331  .00008028  00000+0  56467-3 0  9996",
        "tle_line2": "2 33412  97.8456 190.1651 0015641 197.0636 163.0066 15.05253107927847"
      },
      "geometry": {
        "type": "Point",
        "coordinates": [
          -160.62618132310152,
          -47.352602605949514
        ]
      }
    },
    {
      "type": "Feature",
      "properties": {
        "norad_id": 33446,
        "name": "YAOGAN-4",
        "group": "resource",
        "lat": 79.46828817675362,
        "lon": -137.82645653449913,
        "alt_km": 615.0893505056238,
        "timestamp": "2025-12-06T11:28:10.685891+00:00",
        "meta_object_name": "YAOGAN-4",
        "meta_object_id": "2008-061A",
        "meta_epoch": "2025-12-05T18:53:59.849664",
        "meta_mean_motion": 14.82648614,
        "meta_eccentricity": 0.00141806,
        "meta_inclination": 97.9174,
        "meta_ra_of_asc_node": 269.9554,
        "meta_arg_of_pericenter": 346.5672,
        "meta_mean_anomaly": 13.5162,
        "meta_ephemeris_type": 0,
        "meta_classification_type": "U",
        "meta_norad_cat_id": 33446,
        "meta_element_set_no": 999,
        "meta_rev_at_epoch": 91700,
        "meta_bstar": 0.00037378722,
        "meta_mean_motion_dot": 2.964e-05,
        "meta_mean_motion_ddot": 0,
        "tle_line1": "1 33446U 08061A   25339.78749826  .00002964  00000+0  37379-3 0  9990",
        "tle_line2": "2 33446  97.9174 269.9554 0014180 346.5672  13.5162 14.82648614917005"
      },
      "geometry": {
        "type": "Point",
        "coordinates": [
          -137.82645653449913,
          79.46828817675362
        ]
      }
    },
    {
      "type": "Feature",
      "properties": {
        "norad_id": 33492,
        "name": "GOSAT (IBUKI)",
        "group": "resource",
        "lat": 63.49793821582339,
        "lon": -74.28496379065581,
        "alt_km": 662.10890081256,
        "timestamp": "2025-12-06T11:28:10.685902+00:00",
        "meta_object_name": "GOSAT (IBUKI)",
        "meta_object_id": "2009-002A",
        "meta_epoch": "2025-12-05T21:51:19.479168",
        "meta_mean_motion": 14.67550998,
        "meta_eccentricity": 9.677e-05,
        "meta_inclination": 98.0771,
        "meta_ra_of_asc_node": 88.609,
        "meta_arg_of_pericenter": 86.5586,
        "meta_mean_anomaly": 273.5729,
        "meta_ephemeris_type": 0,
        "meta_classification_type": "U",
        "meta_norad_cat_id": 33492,
        "meta_element_set_no": 999,
        "meta_rev_at_epoch": 90311,
        "meta_bstar": 0.00030575884,
        "meta_mean_motion_dot": 1.687e-05,
        "meta_mean_motion_ddot": 0,
        "tle_line1": "1 33492U 09002A   25339.91064212  .00001687  00000+0  30576-3 0  9994",
        "tle_line2": "2 33492  98.0771  88.6090 0000967  86.5586 273.5729 14.67550998903119"
      },
      "geometry": {
        "type": "Point",
        "coordinates": [
          -74.28496379065581,
          63.49793821582339
        ]
      }
    },
    {
      "type": "Feature",
      "properties": {
        "norad_id": 35681,
        "name": "DEIMOS-1",
        "group": "resource",
        "lat": 26.25240778516916,
        "lon": 137.53927244137955,
        "alt_km": 643.6267044892093,
        "timestamp": "2025-12-06T11:28:10.685913+00:00",
        "meta_object_name": "DEIMOS-1",
        "meta_object_id": "2009-041A",
        "meta_epoch": "2025-12-05T22:19:27.791328",
        "meta_mean_motion": 14.74936163,
        "meta_eccentricity": 0.00026874,
        "meta_inclination": 97.7153,
        "meta_ra_of_asc_node": 140.851,
        "meta_arg_of_pericenter": 92.6109,
        "meta_mean_anomaly": 267.5408,
        "meta_ephemeris_type": 0,
        "meta_classification_type": "U",
        "meta_norad_cat_id": 35681,
        "meta_element_set_no": 999,
        "meta_rev_at_epoch": 87839,
        "meta_bstar": 0.00019777151,
        "meta_mean_motion_dot": 1.281e-05,
        "meta_mean_motion_ddot": 0,
        "tle_line1": "1 35681U 09041A   25339.93018277  .00001281  00000+0  19777-3 0  9991",
        "tle_line2": "2 35681  97.7153 140.8510 0002687  92.6109 267.5408 14.74936163878397"
      },
      "geometry": {
        "type": "Point",
        "coordinates": [
          137.53927244137955,
          26.25240778516916
        ]
      }
    },
    {
      "type": "Feature",
      "properties": {
        "norad_id": 35682,
        "name": "DUBAISAT-1",
        "group": "resource",
        "lat": -30.434086518025186,
        "lon": 115.97662665004842,
        "alt_km": 645.5602527038036,
        "timestamp": "2025-12-06T11:28:10.685924+00:00",
        "meta_object_name": "DUBAISAT-1",
        "meta_object_id": "2009-041B",
        "meta_epoch": "2025-12-05T22:34:48.066240",
        "meta_mean_motion": 14.74573149,
        "meta_eccentricity": 0.00099417,
        "meta_inclination": 97.9788,
        "meta_ra_of_asc_node": 110.7211,
        "meta_arg_of_pericenter": 337.8008,
        "meta_mean_anomaly": 22.2769,
        "meta_ephemeris_type": 0,
        "meta_classification_type": "U",
        "meta_norad_cat_id": 35682,
        "meta_element_set_no": 999,
        "meta_rev_at_epoch": 87661,
        "meta_bstar": 0.00039438896,
        "meta_mean_motion_dot": 2.578e-05,
        "meta_mean_motion_ddot": 0,
        "tle_line1": "1 35682U 09041B   25339.94083410  .00002578  00000+0  39439-3 0  9991",
        "tle_line2": "2 35682  97.9788 110.7211 0009941 337.8008  22.2769 14.74573149876610"
      },
      "geometry": {
        "type": "Point",
        "coordinates": [
          115.97662665004842,
          -30.434086518025186
        ]
      }
    },
    {
      "type": "Feature",
      "properties": {
        "norad_id": 35931,
        "name": "OCEANSAT-2",
        "group": "resource",
        "lat": 33.82433253866067,
        "lon": -23.846442956443806,
        "alt_km": 882.2022813087669,
        "timestamp": "2025-12-06T11:28:10.685936+00:00",
        "meta_object_name": "OCEANSAT-2",
        "meta_object_id": "2009-051A",
        "meta_epoch": "2025-12-05T23:17:49.570368",
        "meta_mean_motion": 13.99626199,
        "meta_eccentricity": 0.00164752,
        "meta_inclination": 98.2227,
        "meta_ra_of_asc_node": 341.2578,
        "meta_arg_of_pericenter": 62.6845,
        "meta_mean_anomaly": 297.5996,
        "meta_ephemeris_type": 0,
        "meta_classification_type": "U",
        "meta_norad_cat_id": 35931,
        "meta_element_set_no": 999,
        "meta_rev_at_epoch": 85230,
        "meta_bstar": -6.9777187e-05,
        "meta_mean_motion_dot": -1.39e-06,
        "meta_mean_motion_ddot": 0,
        "tle_line1": "1 35931U 09051A   25339.97071262 -.00000139  00000+0 -69777-4 0  9996",
        "tle_line2": "2 35931  98.2227 341.2578 0016475  62.6845 297.5996 13.99626199852307"
      },
      "geometry": {
        "type": "Point",
        "coordinates": [
          -23.846442956443806,
          33.82433253866067
        ]
      }
    },
    {
      "type": "Feature",
      "properties": {
        "norad_id": 35946,
        "name": "WORLDVIEW-2 (WV-2)",
        "group": "resource",
        "lat": 18.881504911791474,
        "lon": 48.72586807402702,
        "alt_km": 764.6876883478244,
        "timestamp": "2025-12-06T11:28:10.685946+00:00",
        "meta_object_name": "WORLDVIEW-2 (WV-2)",
        "meta_object_id": "2009-055A",
        "meta_epoch": "2025-12-05T22:01:05.691936",
        "meta_mean_motion": 14.37647874,
        "meta_eccentricity": 0.00054161,
        "meta_inclination": 98.4768,
        "meta_ra_of_asc_node": 51.097,
        "meta_arg_of_pericenter": 83.29,
        "meta_mean_anomaly": 276.8904,
        "meta_ephemeris_type": 0,
        "meta_classification_type": "U",
        "meta_norad_cat_id": 35946,
        "meta_element_set_no": 999,
        "meta_rev_at_epoch": 84787,
        "meta_bstar": 0.00014100366,
        "meta_mean_motion_dot": 3.8e-06,
        "meta_mean_motion_ddot": 0,
        "tle_line1": "1 35946U 09055A   25339.91742699  .00000380  00000+0  14100-3 0  9994",
        "tle_line2": "2 35946  98.4768  51.0970 0005416  83.2900 276.8904 14.37647874847872"
      },
      "geometry": {
        "type": "Point",
        "coordinates": [
          48.72586807402702,
          18.881504911791474
        ]
      }
    }
  ]
}